{
  "type": "FeatureCollection",
  "features": [
    {
      "type": "Feature",
      "properties": {
        "norad_id": 66546,
        "name": "SHIJIAN-30B",
        "group": "last-30-days",
        "lat": -39.62452853967498,
        "lon": -68.79576072660194,
        "alt_km": 519.7262461157452,
        "timestamp": "2025-12-12T22:42:11.305902+00:00",
        "meta_object_name": "SHIJIAN-30B",
        "meta_object_id": "2025-266B",
        "meta_epoch": "2025-12-12T18:11:35.896704",
        "meta_mean_motion": 15.15413484,
        "meta_eccentricity": 0.0010493,
        "meta_inclination": 51.7964,
        "meta_ra_of_asc_node": 332.7851,
        "meta_arg_of_pericenter": 359.7411,
        "meta_mean_anomaly": 0.3558,
        "meta_ephemeris_type": 0,
        "meta_classification_type": "U",
        "meta_norad_cat_id": 66546,
        "meta_element_set_no": 999,
        "meta_rev_at_epoch": 358,
        "meta_bstar": 0.00093642,
        "meta_mean_motion_dot": 0.0001767,
        "meta_mean_motion_ddot": 0,
        "tle_line1": "1 66546U 25266B   25346.75805436  .00017670  00000+0  93642-3 0  9993",
        "tle_line2": "2 66546  51.7964 332.7851 0010493 359.7411   0.3558 15.15413484  3580"
      },
      "geometry": {
        "type": "Point",
        "coordinates": [
          -68.79576072660194,
          -39.62452853967498
        ]
      }
    },
    {
      "type": "Feature",
      "properties": {
        "norad_id": 66547,
        "name": "SHIJIAN-30C",
        "group": "last-30-days",
        "lat": -40.95486397311731,
        "lon": -71.20806715631134,
        "alt_km": 518.9192336835831,
        "timestamp": "2025-12-12T22:42:11.305913+00:00",
        "meta_object_name": "SHIJIAN-30C",
        "meta_object_id": "2025-266C",
        "meta_epoch": "2025-12-12T18:12:11.178144",
        "meta_mean_motion": 15.15369549,
        "meta_eccentricity": 0.0011353,
        "meta_inclination": 51.7973,
        "meta_ra_of_asc_node": 332.7893,
        "meta_arg_of_pericenter": 351.3055,
        "meta_mean_anomaly": 8.7723,
        "meta_ephemeris_type": 0,
        "meta_classification_type": "U",
        "meta_norad_cat_id": 66547,
        "meta_element_set_no": 999,
        "meta_rev_at_epoch": 358,
        "meta_bstar": 0.00083816,
        "meta_mean_motion_dot": 0.00015762,
        "meta_mean_motion_ddot": 0,
        "tle_line1": "1 66547U 25266C   25346.75846271  .00015762  00000+0  83816-3 0  9998",
        "tle_line2": "2 66547  51.7973 332.7893 0011353 351.3055   8.7723 15.15369549  3583"
      },
      "geometry": {
        "type": "Point",
        "coordinates": [
          -71.20806715631134,
          -40.95486397311731
        ]
      }
    },
    {
      "type": "Feature",
      "properties": {
        "norad_id": 66548,
        "name": "CZ-2C R/B",
        "group": "last-30-days",
        "lat": 51.51073138341339,
        "lon": 71.38698058471594,
        "alt_km": 454.6935390476274,
        "timestamp": "2025-12-12T22:42:11.305923+00:00",
        "meta_object_name": "CZ-2C R/B",
        "meta_object_id": "2025-266D",
        "meta_epoch": "2025-12-12T06:36:13.222656",
        "meta_mean_motion": 15.30162717,
        "meta_eccentricity": 0.00839208,
        "meta_inclination": 52.0553,
        "meta_ra_of_asc_node": 333.4936,
        "meta_arg_of_pericenter": 171.4081,
        "meta_mean_anomaly": 188.8364,
        "meta_ephemeris_type": 0,
        "meta_classification_type": "U",
        "meta_norad_cat_id": 66548,
        "meta_element_set_no": 999,
        "meta_rev_at_epoch": 354,
        "meta_bstar": 0.00046657621,
        "meta_mean_motion_dot": 0.00015017,
        "meta_mean_motion_ddot": 0,
        "tle_line1": "1 66548U 25266D   25346.27515304  .00015017  00000+0  46658-3 0  9992",
        "tle_line2": "2 66548  52.0553 333.4936 0083920 171.4081 188.8364 15.30162717  3549"
      },
      "geometry": {
        "type": "Point",
        "coordinates": [
          71.38698058471594,
          51.51073138341339
        ]
      }
    },
    {
      "type": "Feature",
      "properties": {
        "norad_id": 66549,
        "name": "SHIJIAN-28",
        "group": "last-30-days",
        "lat": -5.004921817273469,
        "lon": 179.2560756909319,
        "alt_km": 35788.810070200205,
        "timestamp": "2025-12-12T22:42:11.305938+00:00",
        "meta_object_name": "SHIJIAN-28",
        "meta_object_id": "2025-277A",
        "meta_epoch": "2025-12-12T16:56:21.569280",
        "meta_mean_motion": 1.00272438,
        "meta_eccentricity": 7.77e-05,
        "meta_inclination": 5.0185,
        "meta_ra_of_asc_node": 274.9569,
        "meta_arg_of_pericenter": 131.6932,
        "meta_mean_anomaly": 45.944,
        "meta_ephemeris_type": 0,
        "meta_classification_type": "U",
        "meta_norad_cat_id": 66549,
        "meta_element_set_no": 999,
        "meta_rev_at_epoch": 28,
        "meta_bstar": 0,
        "meta_mean_motion_dot": -3.49e-06,
        "meta_mean_motion_ddot": 0,
        "tle_line1": "1 66549U 25277A   25346.70580520 -.00000349  00000+0  00000+0 0  9995",
        "tle_line2": "2 66549   5.0185 274.9569 0000777 131.6932  45.9440  1.00272438   282"
      },
      "geometry": {
        "type": "Point",
        "coordinates": [
          179.2560756909319,
          -5.004921817273469
        ]
      }
    },
    {
      "type": "Feature",
      "properties": {
        "norad_id": 66550,
        "name": "CZ-7A R/B",
        "group": "last-30-days",
        "lat": -3.8357790395719236,
        "lon": -105.32064906780799,
        "alt_km": 24086.737111512535,
        "timestamp": "2025-12-12T22:42:11.305950+00:00",
        "meta_object_name": "CZ-7A R/B",
        "meta_object_id": "2025-277B",
        "meta_epoch": "2025-12-11T21:15:17.066880",
        "meta_mean_motion": 2.66441312,
        "meta_eccentricity": 0.70455647,
        "meta_inclination": 14.387,
        "meta_ra_of_asc_node": 270.3219,
        "meta_arg_of_pericenter": 188.195,
        "meta_mean_anomaly": 147.1658,
        "meta_ephemeris_type": 0,
        "meta_classification_type": "U",
        "meta_norad_cat_id": 66550,
        "meta_element_set_no": 999,
        "meta_rev_at_epoch": 32,
        "meta_bstar": 0.0016961454,
        "meta_mean_motion_dot": 0.01819102,
        "meta_mean_motion_ddot": 7.12965e-07,
        "tle_line1": "1 66550U 25277B   25345.88561420  .01819102  71296-6  16961-2 0  9996",
        "tle_line2": "2 66550  14.3870 270.3219 7045564 188.1950 147.1658  2.66441312   320"
      },
      "geometry": {
        "type": "Point",
        "coordinates": [
          -105.32064906780799,
          -3.8357790395719236
        ]
      }
    },
    {
      "type": "Feature",
      "properties": {
        "norad_id": 66551,
        "name": "USA 568",
        "group": "last-30-days",
        "lat": 51.826404629164806,
        "lon": -66.18844980190954,
        "alt_km": 189.4870086302608,
        "timestamp": "2025-12-12T22:42:11.305961+00:00",
        "meta_object_name": "USA 568",
        "meta_object_id": "2024-134K",
        "meta_epoch": "2025-12-02T16:00:03.000096",
        "meta_mean_motion": 15.87051116,
        "meta_eccentricity": 7.17e-05,
        "meta_inclination": 53.1571,
        "meta_ra_of_asc_node": 236.7807,
        "meta_arg_of_pericenter": 110.7411,
        "meta_mean_anomaly": 313.9012,
        "meta_ephemeris_type": 0,
        "meta_classification_type": "U",
        "meta_norad_cat_id": 66551,
        "meta_element_set_no": 999,
        "meta_rev_at_epoch": 262,
        "meta_bstar": -0.0074303,
        "meta_mean_motion_dot": -0.01709685,
        "meta_mean_motion_ddot": 0,
        "tle_line1": "1 66551U 24134K   25336.66670139 -.01709685  00000+0 -74303-2 0  9990",
        "tle_line2": "2 66551  53.1571 236.7807 0000717 110.7411 313.9012 15.87051116  2624"
      },
      "geometry": {
        "type": "Point",
        "coordinates": [
          -66.18844980190954,
          51.826404629164806
        ]
      }
    },
    {
      "type": "Feature",
      "properties": {
        "norad_id": 66554,
        "name": "GLOBAL-33",
        "group": "last-30-days",
        "lat": 35.88297718435103,
        "lon": -177.65635626726754,
        "alt_km": 463.73084313518666,
        "timestamp": "2025-12-12T22:42:11.305972+00:00",
        "meta_object_name": "GLOBAL-33",
        "meta_object_id": "2025-267A",
        "meta_epoch": "2025-12-12T06:32:13.991424",
        "meta_mean_motion": 15.31623691,
        "meta_eccentricity": 0.00042754,
        "meta_inclination": 42.0213,
        "meta_ra_of_asc_node": 59.6909,
        "meta_arg_of_pericenter": 51.9902,
        "meta_mean_anomaly": 308.1321,
        "meta_ephemeris_type": 0,
        "meta_classification_type": "U",
        "meta_norad_cat_id": 66554,
        "meta_element_set_no": 999,
        "meta_rev_at_epoch": 333,
        "meta_bstar": 0.0004305913,
        "meta_mean_motion_dot": 0.00013207,
        "meta_mean_motion_ddot": 0,
        "tle_line1": "1 66554U 25267A   25346.27238416  .00013207  00000+0  43059-3 0  9997",
        "tle_line2": "2 66554  42.0213  59.6909 0004275  51.9902 308.1321 15.31623691  3336"
      },
      "geometry": {
        "type": "Point",
        "coordinates": [
          -177.65635626726754,
          35.88297718435103
        ]
      }
    }
  ]
}